[{"OBJECT_NAME":"STARLINK-34963","OBJECT_ID":"2025-179H","EPOCH":"2026-03-09T16:54:12.774528","MEAN_MOTION":15.05654928,"ECCENTRICITY":0.00025698,"INCLINATION":97.6023,"RA_OF_ASC_NODE":113.0284,"ARG_OF_PERICENTER":120.1192,"MEAN_ANOMALY":240.0289,"EPHEMERIS_TYPE":0,"CLASSIFICATION_TYPE":"U","NORAD_CAT_ID":65242,"ELEMENT_SET_NO":999,"REV_AT_EPOCH":3197,"BSTAR":0.00038689906,"MEAN_MOTION_DOT":5.527e-5,"MEAN_MOTION_DDOT":0},{"OBJECT_NAME":"CZ-6A DEB","OBJECT_ID":"2022-151AFF","EPOCH":"2026-03-08T15:34:13.969920","MEAN_MOTION":15.07686186,"ECCENTRICITY":0.00385412,"INCLINATION":98.6214,"RA_OF_ASC_NODE":147.2095,"ARG_OF_PERICENTER":177.326,"MEAN_ANOMALY":182.8178,"EPHEMERIS_TYPE":0,"CLASSIFICATION_TYPE":"U","NORAD_CAT_ID":56631,"ELEMENT_SET_NO":999,"REV_AT_EPOCH":15333,"BSTAR":0.0088285077,"MEAN_MOTION_DOT":0.00139408,"MEAN_MOTION_DDOT":0}]
